[Satellite]
VERSION=1.1
NAME=SJ-6C
NICKNAME=SJ-6C
TLE1=1 29505U 06046A   22342.47954115  .00002742  00000+0  24409-3 0  9992
TLE2=2 29505  97.7665   2.3585 0002877 254.4688 105.6255 14.96879978878721
STATUS=0
